[{"OBJECT_NAME":"STARLINK-6347","OBJECT_ID":"2023-099AH","EPOCH":"2026-03-09T12:05:03.091200","MEAN_MOTION":15.02513581,"ECCENTRICITY":0.0001309,"INCLINATION":43.0076,"RA_OF_ASC_NODE":237.3814,"ARG_OF_PERICENTER":264.1599,"MEAN_ANOMALY":95.9094,"EPHEMERIS_TYPE":0,"CLASSIFICATION_TYPE":"U","NORAD_CAT_ID":57359,"ELEMENT_SET_NO":999,"REV_AT_EPOCH":14623,"BSTAR":0.00025263757,"MEAN_MOTION_DOT":3.209e-5,"MEAN_MOTION_DDOT":0},{"OBJECT_NAME":"THE ARAB SATELLITE 813","OBJECT_ID":"2025-292B","EPOCH":"2026-03-09T21:37:26.354208","MEAN_MOTION":15.05594469,"ECCENTRICITY":0.00142186,"INCLINATION":97.6379,"RA_OF_ASC_NODE":145.6178,"ARG_OF_PERICENTER":341.4344,"MEAN_ANOMALY":18.6363,"EPHEMERIS_TYPE":0,"CLASSIFICATION_TYPE":"U","NORAD_CAT_ID":66994,"ELEMENT_SET_NO":999,"REV_AT_EPOCH":1350,"BSTAR":0.00043840303,"MEAN_MOTION_DOT":6.274e-5,"MEAN_MOTION_DDOT":0}]
